[{"OBJECT_NAME":"STARLINK-33606","OBJECT_ID":"2025-065Y","EPOCH":"2026-03-09T12:20:26.080800","MEAN_MOTION":15.27580832,"ECCENTRICITY":6.828e-5,"INCLINATION":43.001,"RA_OF_ASC_NODE":107.9589,"ARG_OF_PERICENTER":293.0036,"MEAN_ANOMALY":67.0744,"EPHEMERIS_TYPE":0,"CLASSIFICATION_TYPE":"U","NORAD_CAT_ID":63421,"ELEMENT_SET_NO":999,"REV_AT_EPOCH":5281,"BSTAR":0.0010456605,"MEAN_MOTION_DOT":0.00028624,"MEAN_MOTION_DDOT":0},{"OBJECT_NAME":"OBJECT BC","OBJECT_ID":"2025-313BC","EPOCH":"2026-03-09T04:33:08.504064","MEAN_MOTION":15.29126358,"ECCENTRICITY":0.00084789,"INCLINATION":97.3985,"RA_OF_ASC_NODE":144.811,"ARG_OF_PERICENTER":328.9209,"MEAN_ANOMALY":31.1528,"EPHEMERIS_TYPE":0,"CLASSIFICATION_TYPE":"U","NORAD_CAT_ID":67298,"ELEMENT_SET_NO":999,"REV_AT_EPOCH":789,"BSTAR":0.0026410397,"MEAN_MOTION_DOT":0.00075331,"MEAN_MOTION_DDOT":0}]
