STARLINK-33606          
1 63421U 25065Y   26068.51419075  .00028624  00000+0  10457-2 0  9998
2 63421  43.0010 107.9589 0000682 293.0036  67.0744 15.27580832 52819
2025-313BC              
1 67298U 25313BC  26068.18968176  .00075331  00000+0  26410-2 0  9997
2 67298  97.3985 144.8110 0008478 328.9209  31.1528 15.29126358  7890
